NUSHSAT1                
1 63211U 25052B   26068.64700493  .00023034  00000+0  74857-3 0  9997
2 63211  97.4095 325.7239 0005501  84.7512 275.4357 15.31903202 54882
STARLINK-34350          
1 64276U 25120W   26068.52757654  .00025470  00000+0  86916-3 0  9998
2 64276  53.1590 117.2785 0001216  86.7800 273.3340 15.30198014 43898
